FLOCK 4G-25             
1 62646U 25009AP  26068.74572546  .00010373  00000+0  38902-3 0  9990
2 62646  97.4049 151.4141 0000828 316.3151  43.8023 15.27424196 63734
STARLINK-35815          
1 66577U 25268W   26067.14705010  .00051100  00000+0  18511-2 0  9997
2 66577  42.9995 355.7880 0001265 285.0834  74.9878 15.27625122 17724
